NAVSTAR 77 (USA 289)    
1 43873U 18109A   23208.25230130  .00000005  00000+0  00000+0 0  9998
2 43873  55.1832 133.9108 0024968 192.9625 331.9360  2.00567138 33899
